STARLINK-31850          
1 59903U 24100U   26068.51703459 -.00000093  00000+0  61506-5 0  9994
2 59903  42.9977 126.0864 0001005 264.5512  95.5225 15.27564513101070
YAOGAN-43 01G           
1 60464U 24148G   26068.44348481  .00010133  00000+0  35873-3 0  9993
2 60464  35.0006  62.0013 0007382 306.3543  53.6492 15.28332833 87004
